RADUGA-1 3 [-]          
1 22981U 94008A   17345.55952066 -.00000324  00000-0  00000-0 0  9991
2 22981  14.8494  14.7024 0004180 259.1104 106.7473  1.00296041 87306
